STARLINK-31481          
1 59541U 24074H   26068.12824842 -.00002634  00000+0 -86250-4 0  9995
2 59541  43.0040 346.2485 0001211 247.3805 112.6919 15.27577203105939
COSMOS 2576             
1 59773U 24092A   26068.82603826  .00015211  00000+0  56283-3 0  9991
2 59773  97.4253 186.0053 0005946 159.7731 200.3745 15.27760963101271
